[{"OBJECT_NAME":"TIANMU-1 21","OBJECT_ID":"2023-208C","EPOCH":"2026-03-09T21:48:13.065120","MEAN_MOTION":15.33041299,"ECCENTRICITY":0.00059807,"INCLINATION":97.4378,"RA_OF_ASC_NODE":187.7048,"ARG_OF_PERICENTER":317.2488,"MEAN_ANOMALY":42.8288,"EPHEMERIS_TYPE":0,"CLASSIFICATION_TYPE":"U","NORAD_CAT_ID":58662,"ELEMENT_SET_NO":999,"REV_AT_EPOCH":12234,"BSTAR":0.00040063782,"MEAN_MOTION_DOT":0.00012722,"MEAN_MOTION_DDOT":0},{"OBJECT_NAME":"STARLINK-34882","OBJECT_ID":"2025-244X","EPOCH":"2026-03-09T17:02:34.265184","MEAN_MOTION":15.30195652,"ECCENTRICITY":0.00012103,"INCLINATION":53.1598,"RA_OF_ASC_NODE":229.7417,"ARG_OF_PERICENTER":56.6324,"MEAN_ANOMALY":303.4792,"EPHEMERIS_TYPE":0,"CLASSIFICATION_TYPE":"U","NORAD_CAT_ID":66227,"ELEMENT_SET_NO":999,"REV_AT_EPOCH":2166,"BSTAR":0.00094450525,"MEAN_MOTION_DOT":0.00027715,"MEAN_MOTION_DDOT":0}]
